STARLINK-4542           
1 53435U 22097AZ  22241.66667824  .00083554  00000+0  59483-3 0  9992
2 53435  53.2199 151.6551 0000711  98.4639 108.4353 15.73161319  3490
STARLINK-4527           
1 53436U 22097BA  22241.58334491  .00078882  00000+0  56209-3 0  9996
2 53436  53.2193 152.0620 0000556  71.6778  25.3743 15.73162587  1307
STARLINK-4526           
1 53438U 22097BC  22241.66667824  .00084678  00000+0  60346-3 0  9993
2 53438  53.2194 151.6484 0001258  91.6167 118.3083 15.73131093  3497
STARLINK-4519           
1 53439U 22097BD  22241.58334491  .00076866  00000+0  54816-3 0  9991
2 53439  53.2196 152.0598 0000574  99.3245 358.9230 15.73154521  1308
FALCON 9 DEB            
1 53440U 22097BE  22241.30129074  .02725452  11992-4  63382-3 0  9991
2 53440  53.2183 149.6102 0023774 130.1661 230.1470 16.28180840  3125
FALCON 9 DEB            
1 53441U 22097BF  22241.60470980  .02868098  12019-4  62517-3 0  9994
2 53441  53.2091 147.9306 0021189 127.9084 232.3880 16.29049941  3173
FALCON 9 DEB            
1 53442U 22097BG  22241.58705423  .03459683  12103-4  55791-3 0  9992
2 53442  53.2162 147.8098 0016749 129.0052 231.2488 16.32378042  3177
FALCON 9 DEB            
1 53443U 22097BH  22241.57783144  .05201279  12188-4  53966-3 0  9991
2 53443  53.2165 147.7380 0012462 128.4741 231.7426 16.36705632  3170
2022-098A               
1 53444U 22098A   22241.56830863  .00001641  00000+0  10818-3 0  9993
2 53444  97.5311 337.5525 0011367 182.7699 301.9928 15.08813587  2929
2022-098B               
1 53445U 22098B   22241.56027270  .00002024  00000+0  13029-3 0  9997
2 53445  97.5338 337.5712 0009408 193.6965 291.7664 15.09455034  2908
2022-098C               
1 53446U 22098C   22241.56689801  .00001721  00000+0  11297-3 0  9990
2 53446  97.5356 337.5666 0011617 186.6297 298.2981 15.08926618  2906
2022-098D               
1 53447U 22098D   22241.56518098  .00001804  00000+0  11776-3 0  9994
2 53447  97.5267 337.5453 0010906 188.0215 297.6332 15.09072158  2903
2022-098E               
1 53448U 22098E   22241.56298411  .00001886  00000+0  12230-3 0  9995
2 53448  97.5340 337.5681 0011444 194.2110 292.2584 15.09255765  2907
2022-098F               
1 53449U 22098F   22241.56176169  .00001954  00000+0  12628-3 0  9998
2 53449  97.5293 337.5549 0011055 195.3281 290.6492 15.09345156  2901
2022-098G               
1 53450U 22098G   22241.55912079  .00002033  00000+0  13058-3 0  9994
2 53450  97.5340 337.5726 0008423 193.6287 291.9921 15.09547187  2904
2022-098H               
1 53451U 22098H   22241.55813363  .00002033  00000+0  13030-3 0  9991
2 53451  97.5385 337.5862 0009070 197.7955 287.9060 15.09625389  2901
2022-098J               
1 53452U 22098J   22241.55694847  .00002119  00000+0  13529-3 0  9994
2 53452  97.5289 337.5613 0009122 199.6368 286.0857 15.09719797  2907
